CCSDS_OEM_VERS = 1.0
CREATION_DATE  = 2017-05-11T11:18:10
ORIGINATOR     = GMAT USER

META_START
OBJECT_NAME          = MOPSSat_alt_35785_km_RAAN_90_104
OBJECT_ID            = SatId
CENTER_NAME          = Earth
REF_FRAME            = EME2000
TIME_SYSTEM          = UTC
START_TIME           = 2017-01-01T00:00:00.000
USEABLE_START_TIME   = 2017-01-01T00:00:00.000
USEABLE_STOP_TIME    = 2017-01-02T00:00:00.000
STOP_TIME            = 2017-01-02T00:00:00.000
INTERPOLATION        = Lagrange
INTERPOLATION_DEGREE = 7 
META_STOP


                                                                                   

2017-01-01T01:59:10.000  -2.249798074351339e+04   3.114775044472458e+04   3.967043109454974e+03  -2.758261066056637e+00  -1.827620098448048e+00   4.863645893626171e-01
2017-01-01T01:59:20.000  -2.252555557150480e+04   3.112946347543069e+04   3.971905383052120e+03  -2.756704251236998e+00  -1.829773498582751e+00   4.860900805152618e-01
2017-01-01T01:59:30.000  -2.255311482319894e+04   3.111115497980580e+04   3.976764910123727e+03  -2.755145751387102e+00  -1.831925327520878e+00   4.858152745189059e-01
2017-01-01T01:59:40.000  -2.258065848173953e+04   3.109282497357760e+04   3.981621687697252e+03  -2.753585568345618e+00  -1.834075583831660e+00   4.855401716977773e-01
2017-01-01T01:59:50.000  -2.260818653001102e+04   3.107447347267609e+04   3.986475712754435e+03  -2.752023703968374e+00  -1.836224266065402e+00   4.852647723791315e-01
2017-01-01T02:00:00.000  -2.263569895099341e+04   3.105610049299350e+04   3.991326982293863e+03  -2.750460160107953e+00  -1.838371372781127e+00   4.849890768896505e-01
2017-01-01T02:00:10.000  -2.266319572762219e+04   3.103770605047850e+04   3.996175493306278e+03  -2.748894938621691e+00  -1.840516902535664e+00   4.847130855568548e-01
2017-01-01T02:00:20.000  -2.269067684340902e+04   3.101929016072119e+04   4.001021242884010e+03  -2.747328041336361e+00  -1.842660853932072e+00   4.844367987028765e-01
2017-01-01T02:00:30.000  -2.271814228182092e+04   3.100085283936780e+04   4.005864228111530e+03  -2.745759470083468e+00  -1.844803225571199e+00   4.841602166506817e-01
2017-01-01T02:00:40.000  -2.274559202642096e+04   3.098239410202734e+04   4.010704446090234e+03  -2.744189226691298e+00  -1.846944016062665e+00   4.838833397226684e-01
2017-01-01T02:00:50.000  -2.277302606051058e+04   3.096391396450763e+04   4.015541893875389e+03  -2.742617313005013e+00  -1.849083223996917e+00   4.836061682442107e-01
2017-01-01T02:01:00.000  -2.280044436739574e+04   3.094541244264087e+04   4.020376568523064e+03  -2.741043730871784e+00  -1.851220847966039e+00   4.833287025410377e-01
2017-01-01T02:01:10.000  -2.282784693038612e+04   3.092688955228239e+04   4.025208467089979e+03  -2.739468482140701e+00  -1.853356886563666e+00   4.830509429392158e-01
2017-01-01T02:01:20.000  -2.285523373253367e+04   3.090834530949156e+04   4.030037586587412e+03  -2.737891568678132e+00  -1.855491338364654e+00   4.827728897678585e-01
2017-01-01T02:01:30.000  -2.288260475698561e+04   3.088977973028921e+04   4.034863924043434e+03  -2.736312992347104e+00  -1.857624201952547e+00   4.824945433554907e-01
2017-01-01T02:01:40.000  -2.290995998684243e+04   3.087119283075461e+04   4.039687476477880e+03  -2.734732755015552e+00  -1.859755475908527e+00   4.822159040315020e-01
2017-01-01T02:01:50.000  -2.293729940578563e+04   3.085258462659900e+04   4.044508241013041e+03  -2.733150858520055e+00  -1.861885158860315e+00   4.819369721197536e-01
2017-01-01T02:02:00.000  -2.296462299744835e+04   3.083395513359291e+04   4.049326214762671e+03  -2.731567304702163e+00  -1.864013249433136e+00   4.816577479449828e-01
2017-01-01T02:02:10.000  -2.299193074557792e+04   3.081530436745604e+04   4.054141394860662e+03  -2.729982095399031e+00  -1.866139746262389e+00   4.813782318311529e-01
2017-01-01T02:02:20.000  -2.301922263359812e+04   3.079663234415255e+04   4.058953778383858e+03  -2.728395232468543e+00  -1.868264647959516e+00   4.810984241058807e-01
2017-01-01T02:02:30.000  -2.304649864497080e+04   3.077793907964782e+04   4.063763362415811e+03  -2.726806717768594e+00  -1.870387953140197e+00   4.808183250967870e-01
2017-01-01T02:02:40.000  -2.307375876311499e+04   3.075922458996243e+04   4.068570144032529e+03  -2.725216553161709e+00  -1.872509660418054e+00   4.805379351323076e-01
2017-01-01T02:02:50.000  -2.310100297143005e+04   3.074048889115896e+04   4.073374120306547e+03  -2.723624740513888e+00  -1.874629768406465e+00   4.802572545414917e-01
2017-01-01T02:03:00.000  -2.312823125332173e+04   3.072173199932194e+04   4.078175288311527e+03  -2.722031281692916e+00  -1.876748275720577e+00   4.799762836537032e-01
2017-01-01T02:03:10.000  -2.315544359221225e+04   3.070295393055120e+04   4.082973645124036e+03  -2.720436178567800e+00  -1.878865180978093e+00   4.796950227985211e-01
2017-01-01T02:03:20.000  -2.318263997163804e+04   3.068415470089554e+04   4.087769187840783e+03  -2.718839433003112e+00  -1.880980482806886e+00   4.794134723047427e-01
2017-01-01T02:03:30.000  -2.320982037518427e+04   3.066533432639639e+04   4.092561913567070e+03  -2.717241046862717e+00  -1.883094179839894e+00   4.791316325010413e-01
2017-01-01T02:03:40.000  -2.323698478648506e+04   3.064649282308811e+04   4.097351819416824e+03  -2.715641022009793e+00  -1.885206270715126e+00   4.788495037159679e-01
2017-01-01T02:03:50.000  -2.326413318928747e+04   3.062763020695222e+04   4.102138902523893e+03  -2.714039360302934e+00  -1.887316754080646e+00   4.785670862772662e-01
2017-01-01T02:04:00.000  -2.329126556735501e+04   3.060874649398527e+04   4.106923160025031e+03  -2.712436063601926e+00  -1.889425628587060e+00   4.782843805128903e-01
2017-01-01T02:04:10.000  -2.331838190445790e+04   3.058984170020593e+04   4.111704589058165e+03  -2.710831133768330e+00  -1.891532892886770e+00   4.780013867511063e-01
2017-01-01T02:04:20.000  -2.334548218434506e+04   3.057091584167232e+04   4.116483186757472e+03  -2.709224572666973e+00  -1.893638545631778e+00   4.777181053207566e-01
2017-01-01T02:04:30.000  -2.337256639072372e+04   3.055196893449880e+04   4.121258950249774e+03  -2.707616382167352e+00  -1.895742585472115e+00   4.774345365515073e-01
2017-01-01T02:04:40.000  -2.339963450733852e+04   3.053300099479953e+04   4.126031876668496e+03  -2.706006564138844e+00  -1.897845011061996e+00   4.771506807730039e-01
2017-01-01T02:04:50.000  -2.342668651761650e+04   3.051401203894047e+04   4.130801963091058e+03  -2.704395120472082e+00  -1.899945821032262e+00   4.768665383186392e-01
2017-01-01T02:05:00.000  -2.345372240509778e+04   3.049500208323439e+04   4.135569206614814e+03  -2.702782053053085e+00  -1.902045014023801e+00   4.765821095209923e-01
2017-01-01T02:05:10.000  -2.348074215327513e+04   3.047597114405411e+04   4.140333604328776e+03  -2.701167363772848e+00  -1.904142588675104e+00   4.762973947135202e-01
2017-01-01T02:05:20.000  -2.350774574621582e+04   3.045691923739480e+04   4.145095153423255e+03  -2.699551054490218e+00  -1.906238543670533e+00   4.760123942240119e-01
2017-01-01T02:05:30.000  -2.353473316794125e+04   3.043784637931028e+04   4.149853851080476e+03  -2.697933127068907e+00  -1.908332877692160e+00   4.757271083811129e-01
2017-01-01T02:05:40.000  -2.356170440256786e+04   3.041875258581453e+04   4.154609694499421e+03  -2.696313583369127e+00  -1.910425589430712e+00   4.754415375128527e-01
2017-01-01T02:05:50.000  -2.358865943395558e+04   3.039963787312601e+04   4.159362680833841e+03  -2.694692425268335e+00  -1.912516677558241e+00   4.751556819503007e-01
2017-01-01T02:06:00.000  -2.361559824596948e+04   3.038050225748703e+04   4.164112807238394e+03  -2.693069654645887e+00  -1.914606140748481e+00   4.748695420248632e-01
2017-01-01T02:06:10.000  -2.364252082247885e+04   3.036134575516262e+04   4.168860070868485e+03  -2.691445273382950e+00  -1.916693977676753e+00   4.745831180682630e-01
2017-01-01T02:06:20.000  -2.366942714710056e+04   3.034216838262736e+04   4.173604468835003e+03  -2.689819283378321e+00  -1.918780187000111e+00   4.742964104153333e-01
2017-01-01T02:06:30.000  -2.369631720354562e+04   3.032297015631470e+04   4.178345998265441e+03  -2.688191686527186e+00  -1.920864767384174e+00   4.740094194002707e-01
2017-01-01T02:06:40.000  -2.372319097548243e+04   3.030375109271539e+04   4.183084656279784e+03  -2.686562484729456e+00  -1.922947717492530e+00   4.737221453581045e-01
2017-01-01T02:06:50.000  -2.375004844714330e+04   3.028451120794373e+04   4.187820440097449e+03  -2.684931679853009e+00  -1.925029036033750e+00   4.734345886182154e-01
2017-01-01T02:07:00.000  -2.377688960271781e+04   3.026525051817108e+04   4.192553346930306e+03  -2.683299273770418e+00  -1.927108721714358e+00   4.731467495108131e-01
2017-01-01T02:07:10.000  -2.380371442649019e+04   3.024596903952813e+04   4.197283374006935e+03  -2.681665268350681e+00  -1.929186773249492e+00   4.728586283654758e-01
2017-01-01T02:07:20.000  -2.383052290248975e+04   3.022666678835177e+04   4.202010518510947e+03  -2.680029665480145e+00  -1.931263189335772e+00   4.725702255148419e-01
2017-01-01T02:07:30.000  -2.385731501475110e+04   3.020734378100258e+04   4.206734777626905e+03  -2.678392467047028e+00  -1.933337968671505e+00   4.722815412918784e-01
2017-01-01T02:07:40.000  -2.388409074731326e+04   3.018800003386367e+04   4.211456148540135e+03  -2.676753674941317e+00  -1.935411109956598e+00   4.719925760298659e-01
2017-01-01T02:07:50.000  -2.391085008396433e+04   3.016863556352939e+04   4.216174628391736e+03  -2.675113291070741e+00  -1.937482611872847e+00   4.717033300652123e-01
2017-01-01T02:08:00.000  -2.393759300858637e+04   3.014925038655218e+04   4.220890214339348e+03  -2.673471317339335e+00  -1.939552473110569e+00   4.714138037336741e-01
2017-01-01T02:08:10.000  -2.396431950501654e+04   3.012984451954383e+04   4.225602903532725e+03  -2.671827755656008e+00  -1.941620692357893e+00   4.711239973718686e-01
